{
  "type": "FeatureCollection",
  "features": [
    {
      "type": "Feature",
      "properties": {
        "norad_id": 36744,
        "name": "COMS 1",
        "group": "weather",
        "lat": 4.3133892825438584,
        "lon": 166.16341105474766,
        "alt_km": 35787.10350020802,
        "timestamp": "2025-12-04T21:36:15.516404+00:00",
        "meta_object_name": "COMS 1",
        "meta_object_id": "2010-032A",
        "meta_epoch": "2025-12-04T14:20:08.607840",
        "meta_mean_motion": 1.00269547,
        "meta_eccentricity": 0.00011485,
        "meta_inclination": 4.3203,
        "meta_ra_of_asc_node": 78.0882,
        "meta_arg_of_pericenter": 188.9827,
        "meta_mean_anomaly": 149.7974,
        "meta_ephemeris_type": 0,
        "meta_classification_type": "U",
        "meta_norad_cat_id": 36744,
        "meta_element_set_no": 999,
        "meta_rev_at_epoch": 4913,
        "meta_bstar": 0,
        "meta_mean_motion_dot": -3.32e-06,
        "meta_mean_motion_ddot": 0,
        "tle_line1": "1 36744U 10032A   25338.59732185 -.00000332  00000+0  00000+0 0  9998",
        "tle_line2": "2 36744   4.3203  78.0882 0001148 188.9827 149.7974  1.00269547 49130"
      },
      "geometry": {
        "type": "Point",
        "coordinates": [
          166.16341105474766,
          4.3133892825438584
        ]
      }
    },
    {
      "type": "Feature",
      "properties": {
        "norad_id": 37214,
        "name": "FENGYUN 3B",
        "group": "weather",
        "lat": 80.87518610983486,
        "lon": -61.51927219867476,
        "alt_km": 829.6509642377168,
        "timestamp": "2025-12-04T21:36:15.516416+00:00",
        "meta_object_name": "FENGYUN 3B",
        "meta_object_id": "2010-059A",
        "meta_epoch": "2025-12-04T15:07:01.065216",
        "meta_mean_motion": 14.14786316,
        "meta_eccentricity": 0.00223962,
        "meta_inclination": 98.992,
        "meta_ra_of_asc_node": 18.5502,
        "meta_arg_of_pericenter": 20.6337,
        "meta_mean_anomaly": 131.6395,
        "meta_ephemeris_type": 0,
        "meta_classification_type": "U",
        "meta_norad_cat_id": 37214,
        "meta_element_set_no": 999,
        "meta_rev_at_epoch": 77991,
        "meta_bstar": 0.00013326605,
        "meta_mean_motion_dot": 2.12e-06,
        "meta_mean_motion_ddot": 0,
        "tle_line1": "1 37214U 10059A   25338.62987344  .00000212  00000+0  13327-3 0  9999",
        "tle_line2": "2 37214  98.9920  18.5502 0022396  20.6337 131.6395 14.14786316779912"
      },
      "geometry": {
        "type": "Point",
        "coordinates": [
          -61.51927219867476,
          80.87518610983486
        ]
      }
    },
    {
      "type": "Feature",
      "properties": {
        "norad_id": 37849,
        "name": "SUOMI NPP",
        "group": "weather",
        "lat": 23.57292992798289,
        "lon": 100.17762036490525,
        "alt_km": 825.1443934442723,
        "timestamp": "2025-12-04T21:36:15.516427+00:00",
        "meta_object_name": "SUOMI NPP",
        "meta_object_id": "2011-061A",
        "meta_epoch": "2025-12-04T14:06:18.334080",
        "meta_mean_motion": 14.19510611,
        "meta_eccentricity": 0.00019404,
        "meta_inclination": 98.7761,
        "meta_ra_of_asc_node": 276.0032,
        "meta_arg_of_pericenter": 134.8225,
        "meta_mean_anomaly": 225.3109,
        "meta_ephemeris_type": 0,
        "meta_classification_type": "U",
        "meta_norad_cat_id": 37849,
        "meta_element_set_no": 999,
        "meta_rev_at_epoch": 73083,
        "meta_bstar": 0.00011755575,
        "meta_mean_motion_dot": 2.04e-06,
        "meta_mean_motion_ddot": 0,
        "tle_line1": "1 37849U 11061A   25338.58771220  .00000204  00000+0  11756-3 0  9991",
        "tle_line2": "2 37849  98.7761 276.0032 0001940 134.8225 225.3109 14.19510611730832"
      },
      "geometry": {
        "type": "Point",
        "coordinates": [
          100.17762036490525,
          23.57292992798289
        ]
      }
    },
    {
      "type": "Feature",
      "properties": {
        "norad_id": 38552,
        "name": "METEOSAT-10 (MSG-3)",
        "group": "weather",
        "lat": -1.6604891726715536,
        "lon": 38.19065886356964,
        "alt_km": 35787.49600709103,
        "timestamp": "2025-12-04T21:36:15.516440+00:00",
        "meta_object_name": "METEOSAT-10 (MSG-3)",
        "meta_object_id": "2012-035B",
        "meta_epoch": "2025-12-04T01:44:31.731072",
        "meta_mean_motion": 1.00272508,
        "meta_eccentricity": 8.021e-05,
        "meta_inclination": 4.2071,
        "meta_ra_of_asc_node": 61.7359,
        "meta_arg_of_pericenter": 221.6691,
        "meta_mean_anomaly": 175.985,
        "meta_ephemeris_type": 0,
        "meta_classification_type": "U",
        "meta_norad_cat_id": 38552,
        "meta_element_set_no": 999,
        "meta_rev_at_epoch": 4890,
        "meta_bstar": 0,
        "meta_mean_motion_dot": 8e-08,
        "meta_mean_motion_ddot": 0,
        "tle_line1": "1 38552U 12035B   25338.07258948  .00000008  00000+0  00000+0 0  9994",
        "tle_line2": "2 38552   4.2071  61.7359 0000802 221.6691 175.9850  1.00272508 48908"
      },
      "geometry": {
        "type": "Point",
        "coordinates": [
          38.19065886356964,
          -1.6604891726715536
        ]
      }
    },
    {
      "type": "Feature",
      "properties": {
        "norad_id": 38771,
        "name": "METOP-B",
        "group": "weather",
        "lat": -44.480003642437715,
        "lon": 37.62026147822827,
        "alt_km": 828.9130945820461,
        "timestamp": "2025-12-04T21:36:15.516451+00:00",
        "meta_object_name": "METOP-B",
        "meta_object_id": "2012-049A",
        "meta_epoch": "2025-12-04T15:03:31.194432",
        "meta_mean_motion": 14.21403832,
        "meta_eccentricity": 0.00025528,
        "meta_inclination": 98.6811,
        "meta_ra_of_asc_node": 28.7233,
        "meta_arg_of_pericenter": 162.3303,
        "meta_mean_anomaly": 197.7963,
        "meta_ephemeris_type": 0,
        "meta_classification_type": "U",
        "meta_norad_cat_id": 38771,
        "meta_element_set_no": 999,
        "meta_rev_at_epoch": 68562,
        "meta_bstar": 0.0001575907,
        "meta_mean_motion_dot": 3.01e-06,
        "meta_mean_motion_ddot": 0,
        "tle_line1": "1 38771U 12049A   25338.62744438  .00000301  00000+0  15759-3 0  9994",
        "tle_line2": "2 38771  98.6811  28.7233 0002552 162.3303 197.7963 14.21403832685625"
      },
      "geometry": {
        "type": "Point",
        "coordinates": [
          37.62026147822827,
          -44.480003642437715
        ]
      }
    },
    {
      "type": "Feature",
      "properties": {
        "norad_id": 39216,
        "name": "INSAT-3D",
        "group": "weather",
        "lat": 1.4016638375513515,
        "lon": 167.52097027617745,
        "alt_km": 35783.515634532385,
        "timestamp": "2025-12-04T21:36:15.516463+00:00",
        "meta_object_name": "INSAT-3D",
        "meta_object_id": "2013-038B",
        "meta_epoch": "2025-12-04T14:20:31.071840",
        "meta_mean_motion": 1.00273216,
        "meta_eccentricity": 0.00017793,
        "meta_inclination": 1.4223,
        "meta_ra_of_asc_node": 85.085,
        "meta_arg_of_pericenter": 156.7246,
        "meta_mean_anomaly": 176.5152,
        "meta_ephemeris_type": 0,
        "meta_classification_type": "U",
        "meta_norad_cat_id": 39216,
        "meta_element_set_no": 999,
        "meta_rev_at_epoch": 4512,
        "meta_bstar": 0,
        "meta_mean_motion_dot": -3.25e-06,
        "meta_mean_motion_ddot": 0,
        "tle_line1": "1 39216U 13038B   25338.59758185 -.00000325  00000+0  00000+0 0  9994",
        "tle_line2": "2 39216   1.4223  85.0850 0001779 156.7246 176.5152  1.00273216 45127"
      },
      "geometry": {
        "type": "Point",
        "coordinates": [
          167.52097027617745,
          1.4016638375513515
        ]
      }
    },
    {
      "type": "Feature",
      "properties": {
        "norad_id": 39260,
        "name": "FENGYUN 3C",
        "group": "weather",
        "lat": 3.010649788225936,
        "lon": -43.48670524034642,
        "alt_km": 850.5281101551518,
        "timestamp": "2025-12-04T21:36:15.516474+00:00",
        "meta_object_name": "FENGYUN 3C",
        "meta_object_id": "2013-052A",
        "meta_epoch": "2025-12-04T14:48:17.874720",
        "meta_mean_motion": 14.15692529,
        "meta_eccentricity": 0.00138783,
        "meta_inclination": 98.4755,
        "meta_ra_of_asc_node": 316.6932,
        "meta_arg_of_pericenter": 220.4019,
        "meta_mean_anomaly": 139.6126,
        "meta_ephemeris_type": 0,
        "meta_classification_type": "U",
        "meta_norad_cat_id": 39260,
        "meta_element_set_no": 999,
        "meta_rev_at_epoch": 63103,
        "meta_bstar": 0.00014369147,
        "meta_mean_motion_dot": 2.41e-06,
        "meta_mean_motion_ddot": 0,
        "tle_line1": "1 39260U 13052A   25338.61687355  .00000241  00000+0  14369-3 0  9995",
        "tle_line2": "2 39260  98.4755 316.6932 0013878 220.4019 139.6126 14.15692529631030"
      },
      "geometry": {
        "type": "Point",
        "coordinates": [
          -43.48670524034642,
          3.010649788225936
        ]
      }
    }
  ]
}